[{"OBJECT_NAME":"IRIS-F2","OBJECT_ID":"2025-009CD","EPOCH":"2026-03-09T16:59:24.417600","MEAN_MOTION":15.24984435,"ECCENTRICITY":0.00049485,"INCLINATION":97.3936,"RA_OF_ASC_NODE":149.6497,"ARG_OF_PERICENTER":359.0166,"MEAN_ANOMALY":1.1061,"EPHEMERIS_TYPE":0,"CLASSIFICATION_TYPE":"U","NORAD_CAT_ID":62684,"ELEMENT_SET_NO":999,"REV_AT_EPOCH":12129,"BSTAR":0.00032095462,"MEAN_MOTION_DOT":7.938e-5,"MEAN_MOTION_DDOT":0},{"OBJECT_NAME":"OBJECT G","OBJECT_ID":"2025-055G","EPOCH":"2026-03-09T23:08:21.696000","MEAN_MOTION":15.22125156,"ECCENTRICITY":0.00098901,"INCLINATION":97.6329,"RA_OF_ASC_NODE":210.2777,"ARG_OF_PERICENTER":141.6478,"MEAN_ANOMALY":218.5462,"EPHEMERIS_TYPE":0,"CLASSIFICATION_TYPE":"U","NORAD_CAT_ID":63297,"ELEMENT_SET_NO":999,"REV_AT_EPOCH":5412,"BSTAR":0.0009330302,"MEAN_MOTION_DOT":0.00021381,"MEAN_MOTION_DDOT":0}]
